start=new Date('2022-04-03T00:00:00.000Z').valueOf();
sats=[{"SEMIMAJOR_AXIS":"6917.821","DECAY_DATE":null,"ECCENTRICITY":"0.00019610","MEAN_MOTION":"15.08859543","EPHEMERIS_TYPE":"0","OBJECT_NAME":"STARLINK-3129","PERIAPSIS":"538.329","PERIOD":"95.436","TLE_LINE1":"1 49453U 21104AX  22092.91668981 -.00088416  00000-0 -56030-2 0  9991","OBJECT_ID":"2021-104AX","TLE_LINE2":"2 49453  53.2167 189.0301 0001961  32.1714 281.7244 15.08859543  3591","MEAN_ELEMENT_THEORY":"SGP4","RCS_SIZE":"LARGE","BSTAR":"-0.00560300000000","REV_AT_EPOCH":"359","MEAN_MOTION_DDOT":"0.0000000000000","TIME_SYSTEM":"UTC","LAUNCH_DATE":"2021-11-13","ELEMENT_SET_NO":"999","INCLINATION":"53.2167","COUNTRY_CODE":"US","EPOCH":"2022-04-02T22:00:01.999584","MEAN_MOTION_DOT":"-0.00088416","NORAD_CAT_ID":"49453","ARG_OF_PERICENTER":"32.1714","OBJECT_TYPE":"PAYLOAD","CLASSIFICATION_TYPE":"U","RA_OF_ASC_NODE":"189.0301","APOAPSIS":"541.042","MEAN_ANOMALY":"281.7244","REF_FRAME":"TEME","SITE":"AFETR","CENTER_NAME":"EARTH","FILE":"3385473","GP_ID":"200324459"},{"CENTER_NAME":"EARTH","FILE":"3385473","GP_ID":"200324709","MEAN_ANOMALY":"273.7415","REF_FRAME":"TEME","SITE":"AFETR","CLASSIFICATION_TYPE":"U","RA_OF_ASC_NODE":"189.0329","APOAPSIS":"541.482","ARG_OF_PERICENTER":"20.1813","OBJECT_TYPE":"PAYLOAD","EPOCH":"2022-04-02T22:00:01.999584","MEAN_MOTION_DOT":"-0.00093885","NORAD_CAT_ID":"49454","LAUNCH_DATE":"2021-11-13","ELEMENT_SET_NO":"999","INCLINATION":"53.2178","COUNTRY_CODE":"US","TIME_SYSTEM":"UTC","MEAN_MOTION_DDOT":"0.0000000000000","TLE_LINE2":"2 49454  53.2178 189.0329 0002629  20.1813 273.7415 15.08867007  3598","RCS_SIZE":"LARGE","MEAN_ELEMENT_THEORY":"SGP4","BSTAR":"-0.00595370000000","REV_AT_EPOCH":"359","TLE_LINE1":"1 49454U 21104AY  22092.91668981 -.00093885  00000-0 -59537-2 0  9993","OBJECT_ID":"2021-104AY","OBJECT_NAME":"STARLINK-3160","PERIOD":"95.436","PERIAPSIS":"537.844","MEAN_MOTION":"15.08867007","EPHEMERIS_TYPE":"0","SEMIMAJOR_AXIS":"6917.798","DECAY_DATE":null,"ECCENTRICITY":"0.00026290"},{"CLASSIFICATION_TYPE":"U","RA_OF_ASC_NODE":"189.0300","APOAPSIS":"541.113","MEAN_ANOMALY":"339.7484","REF_FRAME":"TEME","SITE":"AFETR","CENTER_NAME":"EARTH","FILE":"3385473","GP_ID":"200324960","LAUNCH_DATE":"2021-11-13","ELEMENT_SET_NO":"999","INCLINATION":"53.2158","COUNTRY_CODE":"US","EPOCH":"2022-04-02T22:00:01.999584","MEAN_MOTION_DOT":"-0.00048617","NORAD_CAT_ID":"49455","ARG_OF_PERICENTER":"34.1536","OBJECT_TYPE":"PAYLOAD","TLE_LINE2":"2 49455  53.2158 189.0300 0002001  34.1536 339.7484 15.08845443  3608","RCS_SIZE":"LARGE","BSTAR":"-0.00305680000000","MEAN_ELEMENT_THEORY":"SGP4","REV_AT_EPOCH":"360","MEAN_MOTION_DDOT":"0.0000000000000","TIME_SYSTEM":"UTC","SEMIMAJOR_AXIS":"6917.864","DECAY_DATE":null,"ECCENTRICITY":"0.00020010","EPHEMERIS_TYPE":"0","MEAN_MOTION":"15.08845443","OBJECT_NAME":"STARLINK-3145","PERIOD":"95.437","PERIAPSIS":"538.344","TLE_LINE1":"1 49455U 21104AZ  22092.91668981 -.00048617  00000-0 -30568-2 0  9990","OBJECT_ID":"2021-104AZ"},{"CENTER_NAME":"EARTH","GP_ID":"200325711","FILE":"3385473","REF_FRAME":"TEME","MEAN_ANOMALY":"305.7927","SITE":"AFETR","CLASSIFICATION_TYPE":"U","RA_OF_ASC_NODE":"189.0314","APOAPSIS":"541.317","ARG_OF_PERICENTER":"28.1264","OBJECT_TYPE":"PAYLOAD","EPOCH":"2022-04-02T22:00:01.999584","MEAN_MOTION_DOT":"-0.00068812","NORAD_CAT_ID":"49456","LAUNCH_DATE":"2021-11-13","ELEMENT_SET_NO":"999","INCLINATION":"53.2177","COUNTRY_CODE":"US","TIME_SYSTEM":"UTC","MEAN_MOTION_DDOT":"0.0000000000000","TLE_LINE2":"2 49456  53.2177 189.0314 0002342  28.1264 305.7927 15.08856044  3596","BSTAR":"-0.00434500000000","RCS_SIZE":"LARGE","MEAN_ELEMENT_THEORY":"SGP4","REV_AT_EPOCH":"359","TLE_LINE1":"1 49456U 21104BA  22092.91668981 -.00068812  00000-0 -43450-2 0  9994","OBJECT_ID":"2021-104BA","OBJECT_NAME":"STARLINK-3124","PERIOD":"95.437","PERIAPSIS":"538.076","EPHEMERIS_TYPE":"0","MEAN_MOTION":"15.08856044","SEMIMAJOR_AXIS":"6917.831","DECAY_DATE":null,"ECCENTRICITY":"0.00023420"},{"ECCENTRICITY":"0.00019870","DECAY_DATE":null,"SEMIMAJOR_AXIS":"6917.812","MEAN_MOTION":"15.08862400","EPHEMERIS_TYPE":"0","PERIOD":"95.436","PERIAPSIS":"538.302","OBJECT_NAME":"STARLINK-3132","OBJECT_ID":"2021-104BB","TLE_LINE1":"1 49457U 21104BB  22092.91668981 -.00078173  00000-0 -49443-2 0  9994","REV_AT_EPOCH":"357","RCS_SIZE":"LARGE","BSTAR":"-0.00494430000000","MEAN_ELEMENT_THEORY":"SGP4","TLE_LINE2":"2 49457  53.2167 189.0305 0001987  36.2128 357.7302 15.08862400  3574","MEAN_MOTION_DDOT":"0.0000000000000","TIME_SYSTEM":"UTC","INCLINATION":"53.2167","COUNTRY_CODE":"US","ELEMENT_SET_NO":"999","LAUNCH_DATE":"2021-11-13","NORAD_CAT_ID":"49457","MEAN_MOTION_DOT":"-0.00078173","EPOCH":"2022-04-02T22:00:01.999584","OBJECT_TYPE":"PAYLOAD","ARG_OF_PERICENTER":"36.2128","APOAPSIS":"541.051","RA_OF_ASC_NODE":"189.0305","CLASSIFICATION_TYPE":"U","SITE":"AFETR","MEAN_ANOMALY":"357.7302","REF_FRAME":"TEME","FILE":"3385473","GP_ID":"200323959","CENTER_NAME":"EARTH"},{"CENTER_NAME":"EARTH","GP_ID":"200324209","FILE":"3385473","MEAN_ANOMALY":"318.5799","REF_FRAME":"TEME","SITE":"AFETR","RA_OF_ASC_NODE":"189.0297","CLASSIFICATION_TYPE":"U","APOAPSIS":"541.176","ARG_OF_PERICENTER":"35.3465","OBJECT_TYPE":"PAYLOAD","MEAN_MOTION_DOT":"-0.00076082","EPOCH":"2022-04-02T22:00:01.999584","NORAD_CAT_ID":"49458","LAUNCH_DATE":"2021-11-13","COUNTRY_CODE":"US","INCLINATION":"53.2163","ELEMENT_SET_NO":"999","TIME_SYSTEM":"UTC","MEAN_MOTION_DDOT":"0.0000000000000","BSTAR":"-0.00481060000000","RCS_SIZE":"LARGE","MEAN_ELEMENT_THEORY":"SGP4","TLE_LINE2":"2 49458  53.2163 189.0297 0002150  35.3465 318.5799 15.08858520  3593","REV_AT_EPOCH":"359","TLE_LINE1":"1 49458U 21104BC  22092.91668981 -.00076082  00000-0 -48106-2 0  9997","OBJECT_ID":"2021-104BC","PERIOD":"95.436","PERIAPSIS":"538.201","OBJECT_NAME":"STARLINK-3156","EPHEMERIS_TYPE":"0","MEAN_MOTION":"15.08858520","SEMIMAJOR_AXIS":"6917.824","ECCENTRICITY":"0.00021500","DECAY_DATE":null},{"ARG_OF_PERICENTER":"32.7416","OBJECT_TYPE":"PAYLOAD","MEAN_MOTION_DOT":"-0.00081430","EPOCH":"2022-04-02T22:00:01.999584","NORAD_CAT_ID":"49459","LAUNCH_DATE":"2021-11-13","INCLINATION":"53.2174","COUNTRY_CODE":"US","ELEMENT_SET_NO":"999","CENTER_NAME":"EARTH","FILE":"3385473","GP_ID":"200325461","MEAN_ANOMALY":"21.1980","REF_FRAME":"TEME","SITE":"AFETR","RA_OF_ASC_NODE":"189.0310","CLASSIFICATION_TYPE":"U","APOAPSIS":"541.232","TLE_LINE1":"1 49459U 21104BD  22092.91668981 -.00081430  00000-0 -51531-2 0  9997","OBJECT_ID":"2021-104BD","PERIAPSIS":"538.114","PERIOD":"95.436","OBJECT_NAME":"STARLINK-3141","EPHEMERIS_TYPE":"0","MEAN_MOTION":"15.08863748","SEMIMAJOR_AXIS":"6917.808","ECCENTRICITY":"0.00022540","DECAY_DATE":null,"TIME_SYSTEM":"UTC","MEAN_MOTION_DDOT":"0.0000000000000","BSTAR":"-0.00515310000000","RCS_SIZE":"LARGE","MEAN_ELEMENT_THEORY":"SGP4","TLE_LINE2":"2 49459  53.2174 189.0310 0002254  32.7416  21.1980 15.08863748  3603","REV_AT_EPOCH":"360"},{"EPHEMERIS_TYPE":"0","MEAN_MOTION":"15.08847141","SEMIMAJOR_AXIS":"6917.859","ECCENTRICITY":"0.00022620","DECAY_DATE":null,"TLE_LINE1":"1 49460U 21104BE  22092.91668981 -.00052779  00000-0 -33217-2 0  9994","OBJECT_ID":"2021-104BE","PERIAPSIS":"538.159","PERIOD":"95.437","OBJECT_NAME":"STARLINK-3140","BSTAR":"-0.00332170000000","RCS_SIZE":"LARGE","MEAN_ELEMENT_THEORY":"SGP4","TLE_LINE2":"2 49460  53.2166 189.0534 0002262  25.2589  48.6713 15.08847141  3608","REV_AT_EPOCH":"360","TIME_SYSTEM":"UTC","MEAN_MOTION_DDOT":"0.0000000000000","MEAN_MOTION_DOT":"-0.00052779","EPOCH":"2022-04-02T22:00:01.999584","NORAD_CAT_ID":"49460","LAUNCH_DATE":"2021-11-13","INCLINATION":"53.2166","COUNTRY_CODE":"US","ELEMENT_SET_NO":"999","ARG_OF_PERICENTER":"25.2589","OBJECT_TYPE":"PAYLOAD","REF_FRAME":"TEME","MEAN_ANOMALY":"48.6713","SITE":"AFETR","RA_OF_ASC_NODE":"189.0534","CLASSIFICATION_TYPE":"U","APOAPSIS":"541.288","CENTER_NAME":"EARTH","GP_ID":"200325211","FILE":"3385473"},{"LAUNCH_DATE":"2021-12-02","COUNTRY_CODE":"US","INCLINATION":"53.2108","ELEMENT_SET_NO":"999","MEAN_MOTION_DOT":"0.00013632","EPOCH":"2022-04-02T22:00:01.999584","NORAD_CAT_ID":"49724","ARG_OF_PERICENTER":"42.1683","OBJECT_TYPE":"PAYLOAD","RA_OF_ASC_NODE":"119.0639","CLASSIFICATION_TYPE":"U","APOAPSIS":"541.167","MEAN_ANOMALY":"131.5253","REF_FRAME":"TEME","SITE":"AFETR","CENTER_NAME":"EARTH","GP_ID":"200324982","FILE":"3385473","SEMIMAJOR_AXIS":"6917.954","ECCENTRICITY":"0.00019480","DECAY_DATE":null,"MEAN_MOTION":"15.08815895","EPHEMERIS_TYPE":"0","PERIAPSIS":"538.471","PERIOD":"95.439","OBJECT_NAME":"STARLINK-3219","TLE_LINE1":"1 49724U 21115A   22092.91668981  .00013632  00000-0  87350-3 0  9990","OBJECT_ID":"2021-115A","MEAN_ELEMENT_THEORY":"SGP4","RCS_SIZE":"LARGE","BSTAR":"0.00087350000000","TLE_LINE2":"2 49724  53.2108 119.0639 0001948  42.1683 131.5253 15.08815895  3601","REV_AT_EPOCH":"360","MEAN_MOTION_DDOT":"0.0000000000000","TIME_SYSTEM":"UTC"},{"SITE":"AFETR","REF_FRAME":"TEME","MEAN_ANOMALY":"318.4765","APOAPSIS":"541.253","CLASSIFICATION_TYPE":"U","RA_OF_ASC_NODE":"119.0371","FILE":"3385473","GP_ID":"200325733","CENTER_NAME":"EARTH","NORAD_CAT_ID":"49725","EPOCH":"2022-04-02T22:00:01.999584","MEAN_MOTION_DOT":"0.00038904","ELEMENT_SET_NO":"999","COUNTRY_CODE":"US","INCLINATION":"53.2174","LAUNCH_DATE":"2021-12-02","OBJECT_TYPE":"PAYLOAD","ARG_OF_PERICENTER":"35.1606","REV_AT_EPOCH":"359","TLE_LINE2":"2 49725  53.2174 119.0371 0002063  35.1606 318.4765 15.08813524  3593","RCS_SIZE":"LARGE","MEAN_ELEMENT_THEORY":"SGP4","BSTAR":"0.00245080000000","TIME_SYSTEM":"UTC","MEAN_MOTION_DDOT":"0.0000000000000","EPHEMERIS_TYPE":"0","MEAN_MOTION":"15.08813524","DECAY_DATE":null,"ECCENTRICITY":"0.00020630","SEMIMAJOR_AXIS":"6917.961","OBJECT_ID":"2021-115B","TLE_LINE1":"1 49725U 21115B   22092.91668981  .00038904  00000-0  24508-2 0  9995","OBJECT_NAME":"STARLINK-3218","PERIAPSIS":"538.399","PERIOD":"95.439"}];
